INTELSAT 11 (IS-11)     
1 32253C 07044B   23079.00000000 -.00000178  00000-0  00000-0 0   797
2 32253   0.4890  93.4501 0002927 274.9202 125.8779  1.00270119    17
INTELSAT 11 (IS-11) [PM]
1 32253C 07044B   23080.84097222 -.00000179  00000-0  00000-0 0   806
2 32253   0.4931  93.1383 0002885 269.1113  76.5529  1.00272632    15
HORIZONS-2              
1 32388C 07063B   23074.94793981 -.00000163  00000-0  00000-0 0   741
2 32388   0.0114 117.2732 0002465 265.4596  57.9832  1.00270419    18
HORIZONS-2              
1 32388C 07063B   23079.00000000 -.00000163  00000-0  00000-0 0   791
2 32388   0.0130 224.0365 0002431 155.6686  83.7523  1.00270208    18
HORIZONS-2          [PM]
1 32388C 07063B   23082.44065972 -.00002026  00000-0  00000-0 0   826
2 32388   0.0013 342.3895 0002216 173.0923 109.9936  1.00272415    10
GALAXY 18 (G-18)        
1 32951C 08024A   23074.94793981  .00000115  00000-0  00000-0 0   741
2 32951   0.0124 116.4132 0003007 250.0443  25.0656  1.00265633    16
GALAXY 18 (G-18)        
1 32951C 08024A   23079.00000000  .00000115  00000-0  00000-0 0   791
2 32951   0.0146 226.4660 0002697 133.6068  54.1814  1.00270786    15
GALAXY 18 (G-18)    [PM]
1 32951C 08024A   23084.63888889  .00000115  00000-0  00000-0 0   841
2 32951   0.0000 174.4951 0002950 184.7743 290.5556  1.00270756    14
INTELSAT 25 (IS-25)     
1 33153C 08034A   23074.94793981 -.00000142  00000-0  00000-0 0   748
2 33153   0.0319 346.4117 0002899  18.9210 117.6905  1.00270847    14
INTELSAT 25 (IS-25) [PM]
1 33153C 08034A   23077.87569444 -.00000136  00000-0  00000-0 0   774
2 33153   0.0340  42.3295 0002844 278.2321 139.3271  1.00271469    19
INTELSAT 25 (IS-25)     
1 33153C 08034A   23079.00000000 -.00000139  00000-0  00000-0 0   794
2 33153   0.0031 126.9210 0002835 237.6920 141.1352  1.00271252    17
GALAXY 19 (G-19)        
1 33376C 08045A   23074.94793981 -.00000049  00000-0  00000-0 0   743
2 33376   0.0000 155.7960 0002817 210.2070  51.5127  1.00271682    16
GALAXY 19 (G-19)        
1 33376C 08045A   23079.00000000 -.00000050  00000-0  00000-0 0   795
2 33376   0.0066 145.0895 0002683 222.1028  73.0517  1.00270294    13
GALAXY 19 (G-19)    [PM]
1 33376C 08045A   23079.04077546 -.00000049  00000-0  00000-0 0   796
2 33376   0.0071 208.5317 0002681 157.1057  89.3258  1.00271367    14
INTELSAT 14 (IS-14)     
1 36097C 09064A   23074.94793981  .00000004  00000-0  00000-0 0   748
2 36097   0.0059 216.8300 0002374 160.8001  91.8809  1.00273063    11
INTELSAT 14 (IS-14)     
1 36097C 09064A   23079.00000000 -.00000272  00000-0  00000-0 0   796
2 36097   0.0000 175.9991 0002283 202.3364 113.9219  1.00271033    17
INTELSAT 14 (IS-14) [PM]
1 36097C 09064A   23081.89875000 -.00000184  00000-0  00000-0 0   811
2 36097   0.0005 154.9454 0002320 216.4849  87.2271  1.00273048    18
INTELSAT 15 (IS-15)     
1 36106C 09067A   23074.94793981 -.00000096  00000-0  00000-0 0   744
2 36106   0.0206  61.1812 0002403 311.3873 227.1017  1.00272598    15
INTELSAT 15 (IS-15)     
1 36106C 09067A   23079.00000000 -.00000080  00000-0  00000-0 0   797
2 36106   0.0368 299.0436 0002308  76.3419 247.0249  1.00269758    18
INTELSAT 15 (IS-15) [PM]
1 36106C 09067A   23082.50021991 -.00000090  00000-0  00000-0 0   823
2 36106   0.0231 293.5834 0002331  73.2031  79.1325  1.00272378    11
INTELSAT 16 (IS-16)     
1 36397C 10006A   23074.94793981 -.00000155  00000-0  00000-0 0   747
2 36397   0.0174  77.5133 0001965 285.6136  75.1877  1.00272542    19
INTELSAT 16 (IS-16)     
1 36397C 10006A   23079.00000000 -.00000155  00000-0  00000-0 0   797
2 36397   0.0228  96.8568 0001835 264.4224  99.7720  1.00270492    15
INTELSAT 16 (IS-16) [PM]
1 36397C 10006A   23080.49063657 -.00000155  00000-0  00000-0 0   801
2 36397   0.0232 270.5973 0001722  85.5282 283.0264  1.00271576    17
INTELSAT 17 (IS-17)     
1 37238C 10065B   23074.94793981  .00000089  00000-0  00000-0 0   742
2 37238   0.0156 189.7673 0002861 185.5623 205.1774  1.00272182    15
INTELSAT 17 (IS-17)     
1 37238C 10065B   23079.00000000  .00000089  00000-0  00000-0 0   792
2 37238   0.0246 212.6146 0002799 162.4447 228.1915  1.00270769    15
INTELSAT 17 (IS-17) [PM]
1 37238C 10065B   23079.77273148  .00000089  00000-0  00000-0 0   791
2 37238   0.0860 245.0779 0001603 144.6091 132.5084  1.00271286    19
INTELSAT NEW DAWN       
1 37392C 11016A   23074.94793981  .00000246  00000-0  00000-0 0   745
2 37392   0.0101 190.7272 0001209 236.6830 119.9028  1.00271677    18
INTELSAT NEW DAWN       
1 37392C 11016A   23079.00000000  .00000246  00000-0  00000-0 0   795
2 37392   0.0114 170.0244 0001148 249.7290 150.3063  1.00269828    12
INTELSAT NEW DAWN   [PM]
1 37392C 11016A   23079.39221065  .00000246  00000-0  00000-0 0   793
2 37392   0.0111 169.2232 0001049 254.2972 288.1213  1.00270149    19
INTELSAT 18 (IS-18)     
1 37834C 11056A   23074.94793981  .00000189  00000-0  00000-0 0   746
2 37834   0.0259  30.6759 0001854 329.0604 334.7947  1.00269109    11
INTELSAT 18 (IS-18)     
1 37834C 11056A   23079.00000000  .00000069  00000-0  00000-0 0   793
2 37834   0.0418 337.3102 0001665  16.2508   3.6834  1.00271210    18
INTELSAT 18 (IS-18) [PM]
1 37834C 11056A   23081.23792824  .00000047  00000-0  00000-0 0   812
2 37834   0.0000 235.6064 0001800 117.7003  91.8015  1.00269875    14
INTELSAT 22 (IS-22)     
1 38098C 12011A   23074.94793981  .00000032  00000-0  00000-0 0   748
2 38098   0.0113 121.4510 0002705 247.8246 217.3447  1.00271358    12
INTELSAT 22 (IS-22)     
1 38098C 12011A   23079.00000000  .00000032  00000-0  00000-0 0   798
2 38098   0.0179 230.2377 0002577 138.3340 240.7819  1.00270714    18
INTELSAT 22 (IS-22) [PM]
1 38098C 12011A   23080.09333333  .00000032  00000-0  00000-0 0   809
2 38098   0.0129 224.5384 0002612 140.9930 278.5060  1.00270317    17
INTELSAT 19 (IS-19)     
1 38356C 12030A   23074.94793981  .00000011  00000-0  00000-0 0   743
2 38356   0.0007 191.7273 0002966 178.4974 310.2900  1.00270965    13
INTELSAT 19 (IS-19) [PM]
1 38356C 12030A   23075.59027778  .00000042  00000-0  00000-0 0   754
2 38356   0.0392 339.3492 0002975  31.6392 181.4004  1.00270715    13
INTELSAT 19 (IS-19)     
1 38356C 12030A   23079.00000000 -.00000019  00000-0  00000-0 0   792
2 38356   0.0018 160.6030 0002790 210.0618 332.5790  1.00270522    17
INTELSAT 20 (IS-20)     
1 38740C 12043A   23075.00000000  .00000066  00000-0  00000-0 0   756
2 38740   0.0166 137.6043 0002232  24.1565  80.0502  1.00269644    11
INTELSAT 20 (IS-20)     
1 38740C 12043A   23079.00000000  .00000066  00000-0  00000-0 0   794
2 38740   0.0139 160.1368 0002175  11.0501  74.5652  1.00269570    15
INTELSAT 20 (IS-20) [PM]
1 38740C 12043A   23081.17302083  .00000066  00000-0  00000-0 0   814
2 38740   0.0382 275.1370 0002014 330.2558  64.7745  1.00272284    15
INTELSAT 21 (IS-21)     
1 38749C 12045A   23074.94793981 -.00000270  00000-0  00000-0 0   743
2 38749   0.0026 212.8565 0002086 150.4401  93.2103  1.00273230    18
INTELSAT 21 (IS-21)     
1 38749C 12045A   23079.00000000 -.00000279  00000-0  00000-0 0   792
2 38749   0.0000 168.3455 0001971 193.4232 117.4865  1.00271086    15
INTELSAT 21 (IS-21) [PM]
1 38749C 12045A   23081.85266204 -.00000193  00000-0  00000-0 0   816
2 38749   0.0013 145.2804 0002048 209.2353  74.5023  1.00272131    18
INTELSAT 23 (IS-23)     
1 38867C 12057A   23074.94793981 -.00000195  00000-0  00000-0 0   743
2 38867   0.0275 242.7935 0001584 120.4501  98.2983  1.00265976    17
INTELSAT 23 (IS-23)     
1 38867C 12057A   23079.00000000 -.00000195  00000-0  00000-0 0   793
2 38867   0.0183 214.0434 0001300  91.0570 179.1254  1.00282112    17
INTELSAT 23 (IS-23) [PM]
1 38867C 12057A   23080.93366898 -.00000195  00000-0  00000-0 0   809
2 38867   0.0274 238.4522 0001324 102.7042 121.1411  1.00270748    10
INTELSAT 30 (IS-30)     
1 40271C 14062A   23075.00000000 -.00000062  00000-0  00000-0 0   758
2 40271   0.0030 136.1868 0002313 334.4532 327.6199  1.00270541    13
INTELSAT 30 (IS-30)     
1 40271C 14062A   23079.00000000 -.00000061  00000-0  00000-0 0   795
2 40271   0.0015 172.5720 0001968 308.0187 321.6125  1.00269359    13
INTELSAT 30 (IS-30) [PM]
1 40271C 14062A   23080.99583333 -.00000059  00000-0  00000-0 0   809
2 40271   0.0000 185.1772 0001767 297.8794 319.5993  1.00272837    14
INTELSAT 34 (IS-34)     
1 40874C 15039A   23075.00000000 -.00000215  00000-0  00000-0 0   752
2 40874   0.0276 284.4374 0000428 220.8197 332.5676  1.00270001    19
INTELSAT 34 (IS-34)     
1 40874C 15039A   23079.00000000 -.00000182  00000-0  00000-0 0   793
2 40874   0.0011 204.1354 0000662 312.8076 324.8179  1.00270114    18
INTELSAT 34 (IS-34) [PM]
1 40874C 15039A   23081.01206019 -.00005792  00000-0  00000-0 0   810
2 40874   0.0000 215.0277 0000398 306.1883 326.8502  1.00272896    10
INTELSAT 31 (IS-31)     
1 41581C 16035A   23075.00000000 -.00000061  00000-0  00000-0 0   754
2 41581   0.0185 221.1590 0002354 334.5536 242.5519  1.00269667    14
INTELSAT 31 (IS-31) [PM]
1 41581C 16035A   23075.45221065 -.00000065  00000-0  00000-0 0   753
2 41581   0.0521 346.7847 0001832   7.6926 247.0322  1.00271964    13
INTELSAT 31 (IS-31)     
1 41581C 16035A   23079.00000000 -.00000061  00000-0  00000-0 0   792
2 41581   0.0210 218.3954 0001892 342.2962 241.5174  1.00269658    16
INTELSAT 31 (IS-31) [PM]
1 41581C 16035A   23081.53244213 -.00000061  00000-0  00000-0 0   812
2 41581   0.0223 231.4646 0002020 339.3037  65.6090  1.00270039    15
INTELSAT 36 (IS-36)     
1 41747C 16053A   23075.00000000  .00000068  00000-0  00000-0 0   754
2 41747   0.0167  68.7413 0001064 318.8693 214.1993  1.00270376    13
INTELSAT 36 (IS-36)     
1 41747C 16053A   23079.00000000  .00000066  00000-0  00000-0 0   790
2 41747   0.0001 128.5545 0000888 239.0643 238.1384  1.00270588    18
